OBJECT_NAME,OBJECT_ID,EPOCH,MEAN_MOTION,ECCENTRICITY,INCLINATION,RA_OF_ASC_NODE,ARG_OF_PERICENTER,MEAN_ANOMALY,EPHEMERIS_TYPE,CLASSIFICATION_TYPE,NORAD_CAT_ID,ELEMENT_SET_NO,REV_AT_EPOCH,BSTAR,MEAN_MOTION_DOT,MEAN_MOTION_DDOT
STARLINK-33933,2025-091K,2026-06-01T11:02:41.045856,15.27587700,.00016472,43.0010,292.4975,249.3587,110.7088,0,U,63784,999,6190,.10185135E-2,.27878E-3,0
STARLINK-33923,2025-091M,2026-06-01T11:10:32.870208,15.27583199,.00011826,43.0013,299.4901,222.7898,137.2862,0,U,63786,999,6166,.10136691E-2,.27739E-3,0
STARLINK-33947,2025-091N,2026-06-01T17:58:37.860384,15.27585029,.00013726,43.0006,298.1841,257.8852,102.1846,0,U,63787,999,6175,.77809235E-3,.21214E-3,0
STARLINK-33882,2025-091P,2026-06-01T20:24:22.840704,15.27610654,.00019718,43.0045,297.2171,267.4648,92.5978,0,U,63788,999,6176,.13998639E-2,.38497E-3,0
STARLINK-33875,2025-091Q,2026-06-01T10:42:45.786528,15.27631277,.00017854,43.0042,299.3422,267.2423,92.8225,0,U,63789,999,6171,.83344925E-3,.22779E-3,0
STARLINK-33869,2025-091R,2026-06-01T16:50:10.533984,15.27586456,.00001956,42.9977,297.8185,1.0330,359.0522,0,U,63790,999,6170,.63729549E-3,.1732E-3,0
STARLINK-33935,2025-091S,2026-06-01T11:36:27.605376,15.27583259,.00011569,42.9981,299.6271,223.1531,136.9230,0,U,63791,999,6182,.68581846E-3,.1866E-3,0
STARLINK-33916,2025-091T,2026-06-01T11:30:54.358848,15.27587907,.00013955,43.0004,299.5977,248.8391,111.2311,0,U,63792,999,6171,.10432155E-2,.28563E-3,0
STARLINK-33925,2025-091U,2026-06-03T20:42:52.982208,15.27644179,.00013974,43.0017,285.6590,291.5705,68.4997,0,U,63793,999,6219,.10113896E-2,.27728E-3,0
STARLINK-33870,2025-091V,2026-06-01T10:29:50.750880,15.27570699,.00018,43.0004,299.2732,285.5360,74.5292,0,U,63794,999,6171,.84656806E-3,.231E-3,0
STARLINK-33867,2025-091W,2026-06-01T11:19:47.787168,15.27596510,.00027156,42.9970,299.5295,167.6908,192.4010,0,U,63795,999,6171,.80008782E-3,.21832E-3,0
STARLINK-33918,2025-091X,2026-06-01T17:38:16.452096,15.27592806,.0002122,43.0029,298.0711,256.1987,103.8628,0,U,63796,999,6180,.85611659E-3,.23381E-3,0
STARLINK-33712,2025-091Y,2026-06-03T11:52:25.936032,15.27616796,.00011536,43.0023,291.5855,262.3657,97.7064,0,U,63797,999,6198,.1149201E-2,.31532E-3,0
STARLINK-33827,2025-091Z,2026-06-01T17:21:37.774368,15.27597568,.00007145,43.0035,297.9839,323.9000,36.1803,0,U,63798,999,6175,.90598322E-3,.24765E-3,0
STARLINK-33899,2025-091AA,2026-06-01T17:10:30.523584,15.27608847,.00010198,43.0025,297.9237,268.5351,91.5384,0,U,63799,999,6186,.70254454E-3,.19137E-3,0
STARLINK-33900,2025-091AB,2026-06-01T17:04:58.240416,15.27575287,.00009943,43.0017,297.8929,254.9708,105.1034,0,U,63800,999,6186,.8161566E-3,.22261E-3,0
STARLINK-33975,2025-091AC,2026-06-01T16:44:36.903840,15.27590653,.00018046,43.0018,297.7829,252.6624,107.4031,0,U,63802,999,6186,.90611113E-3,.24764E-3,0
STARLINK-33951,2025-091AD,2026-06-01T10:35:23.499744,15.27580839,.00013756,43.0004,299.3006,261.7531,98.3165,0,U,63803,999,6176,.10008606E-2,.27382E-3,0
STARLINK-33909,2025-092A,2026-06-03T16:45:29.617344,15.27657384,.00021532,43.0042,47.2456,253.6613,106.4002,0,U,63804,999,6176,.12259535E-2,.33708E-3,0
STARLINK-34029,2025-092B,2026-06-02T13:57:26.690688,15.27607915,.0001446,43.0043,53.4769,332.6249,27.4527,0,U,63805,999,6159,.10407E-2,.2851E-3,0
STARLINK-34102,2025-092C,2026-06-01T03:24:07.833312,15.27528900,.00013761,43.0050,61.5938,257.5762,102.4936,0,U,63806,999,6142,.59590765E-3,.16146E-3,0
STARLINK-34109,2025-092D,2026-06-01T03:57:13.107456,15.27614577,.00031482,43.0042,60.9024,289.0688,70.9822,0,U,63807,999,6138,.75010283E-3,.2046E-3,0
STARLINK-34091,2025-092E,2026-06-01T23:24:07.079616,15.27593142,.00016383,43.0013,56.6650,234.5355,125.5344,0,U,63808,999,6155,.11925015E-2,.32712E-3,0
STARLINK-34095,2025-092F,2026-06-01T03:31:31.969920,15.27594413,.00014069,43.0046,61.6362,270.7271,89.3419,0,U,63809,999,6137,.10495312E-2,.28744E-3,0
STARLINK-34127,2025-092G,2026-06-01T22:58:12.577728,15.27594779,.00015395,42.9980,56.5266,239.9884,120.0815,0,U,63810,999,6150,.10312961E-2,.28239E-3,0
STARLINK-34101,2025-092J,2026-06-04T03:49:54.879744,15.27684880,.000267,43.0025,43.8173,249.4026,110.6539,0,U,63812,999,6178,.13208E-2,.36382E-3,0
STARLINK-34065,2025-092K,2026-06-01T03:44:57.416640,15.27599334,.00024232,43.0016,57.3287,285.9753,74.0831,0,U,63813,999,6136,.62913313E-3,.17101E-3,0
STARLINK-34057,2025-092L,2026-06-01T02:15:40.194144,15.27591797,.00011115,42.9992,61.2274,283.8829,76.1899,0,U,63814,999,6137,.10548476E-2,.28889E-3,0
STARLINK-34060,2025-092M,2026-06-03T13:55:27.939072,15.27628080,.0001676,43.0000,47.2076,275.6624,84.4037,0,U,63815,999,6169,.69726E-3,.19003E-3,0
STARLINK-34048,2025-092N,2026-06-01T03:22:16.578624,15.27599854,.00016897,43.0063,61.5813,257.9356,102.1306,0,U,63816,999,6142,.86897444E-3,.23742E-3,0
STARLINK-33959,2025-092P,2026-06-03T23:03:45.272160,15.27634552,.0001583,43.0029,44.9091,274.7471,85.3200,0,U,63817,999,6186,.78839E-3,.21532E-3,0
STARLINK-34058,2025-092Q,2026-06-02T04:50:46.536000,15.27607518,.00016006,43.0016,54.9246,257.0078,103.0595,0,U,63818,999,6159,.79170221E-3,.21606E-3,0
STARLINK-34055,2025-092R,2026-06-02T19:47:31.071552,15.29174309,.0004983,42.9999,51.8344,160.9420,199.1619,0,U,63819,999,6163,.11327974E-2,.3262E-3,0
STARLINK-33794,2025-092S,2026-06-02T19:55:32.907072,15.27626672,.00004428,43.0003,51.9021,222.6777,137.4041,0,U,63820,999,6163,.10260406E-2,.2812E-3,0
STARLINK-34047,2025-092T,2026-06-01T03:01:55.782048,15.27592287,.00018313,43.0053,61.4710,258.7019,101.3627,0,U,63821,999,6142,.97026446E-3,.26544E-3,0
STARLINK-34094,2025-092U,2026-06-01T03:17:24.937152,15.27604567,.00019356,43.0039,58.0671,258.7226,101.3408,0,U,63822,999,6146,.11378456E-2,.31205E-3,0
STARLINK-34043,2025-092V,2026-06-01T03:20:54.337056,15.27595146,.00015805,43.0038,57.2165,263.2037,96.8635,0,U,63823,999,6142,.85120121E-3,.23246E-3,0
STARLINK-34025,2025-092W,2026-06-03T01:12:57.443904,15.27612557,.00016948,43.0022,50.1127,260.0041,100.0620,0,U,63824,999,6161,.65449027E-3,.17809E-3,0
STARLINK-33874,2025-092X,2026-06-01T23:18:33.518592,15.27580898,.0001798,43.0053,56.6281,247.6535,112.4126,0,U,63825,999,6155,.44546754E-3,.12016E-3,0
STARLINK-33781,2025-092Y,2026-06-03T13:24:14.191776,15.27641508,.0002668,43.0053,47.9053,248.5847,111.4720,0,U,63826,999,6179,.10984E-2,.30145E-3,0
STARLINK-33891,2025-092Z,2026-06-01T03:29:40.826688,15.27541017,.00017365,43.0054,61.6138,259.9287,100.1369,0,U,63827,999,6131,.89509919E-3,.24421E-3,0
STARLINK-33903,2025-092AA,2026-06-01T02:47:07.368864,15.27588211,.00012806,43.0018,61.3886,264.6252,95.4454,0,U,63828,999,6142,.11454185E-2,.31399E-3,0
STARLINK-33889,2025-092AB,2026-06-04T04:12:07.369056,15.27632175,.0001775,42.9985,43.9337,241.1890,118.8784,0,U,63829,999,6178,.69447E-3,.18928E-3,0
STARLINK-33984,2025-092AC,2026-06-01T18:19:26.426784,15.27577261,.00008585,42.9994,57.6455,261.8654,98.2100,0,U,63830,999,6147,.64366639E-3,.17491E-3,0
STARLINK-33940,2025-092AD,2026-06-01T23:16:41.900160,15.27611030,.0000975,43.0011,56.6269,277.3705,82.7036,0,U,63831,999,6155,.77755467E-3,.21216E-3,0
STARLINK-33978,2025-092AE,2026-06-01T02:30:27.743328,15.27609298,.00027212,43.0015,61.3086,281.1776,78.8770,0,U,63832,999,6142,.67514277E-3,.1838E-3,0
HERMES-4,2025-052BP,2026-06-03T22:50:58.051392,15.29771653,.0001122,97.3875,48.8525,195.0166,165.1041,0,U,63833,999,6792,.66969E-3,.19265E-3,0
HERMES-5,2025-052BQ,2026-06-02T15:41:40.379712,15.28207579,.00044556,97.3992,48.1844,171.4375,188.6941,0,U,63834,999,6773,.63092368E-3,.17295E-3,0
HERMES-3,2025-052BR,2026-06-03T15:26:59.505792,15.33471953,.0006637,97.3883,50.1218,155.8698,204.2856,0,U,63835,999,6798,.65596E-3,.21191E-3,0
STARLINK-34018,2025-093A,2026-06-03T21:19:00.064416,15.27614838,.0002003,43.0068,311.2332,332.3831,27.6914,0,U,63836,999,6115,.697E-3,.18988E-3,0
STARLINK-34053,2025-093B,2026-06-01T11:11:30.042816,15.27598126,.00015462,43.0023,324.8681,205.9052,154.1722,0,U,63837,999,6072,.96346274E-3,.2636E-3,0
STARLINK-34042,2025-093C,2026-06-01T21:19:28.716384,15.27594243,.00016715,43.0025,318.5512,259.7894,100.2769,0,U,63838,999,6089,.83669808E-3,.22843E-3,0
STARLINK-34040,2025-093D,2026-06-01T18:43:46.638624,15.27591978,.00011854,43.0029,322.9273,237.8116,122.2621,0,U,63839,999,6083,.84200972E-3,.22989E-3,0
STARLINK-33990,2025-093E,2026-06-01T21:55:46.633152,15.27608177,.00010227,42.9999,322.1950,218.8485,141.2294,0,U,63840,999,6063,.7210827E-3,.1965E-3,0
STARLINK-34056,2025-093F,2026-06-01T19:15:12.979584,15.27617338,.00012743,43.0019,323.0934,252.7664,107.3049,0,U,63841,999,6061,.75678506E-3,.20645E-3,0
STARLINK-34026,2025-093G,2026-06-01T19:17:04.144416,15.27633178,.00041809,43.0082,323.0993,252.7325,107.3070,0,U,63842,999,6061,.22542716E-2,.62409E-3,0
STARLINK-33777,2025-093H,2026-06-01T12:06:48.122496,15.27592734,.00012461,43.0007,324.2944,260.6195,99.4516,0,U,63843,999,6079,.98475287E-3,.26946E-3,0
STARLINK-34041,2025-093J,2026-06-02T18:56:50.900928,15.27598547,.00021995,43.0025,317.6020,1.5167,358.5691,0,U,63844,999,6098,.82434229E-3,.22504E-3,0
STARLINK-34011,2025-093K,2026-06-03T13:57:49.223808,15.27614617,.0002016,43.0031,313.2379,275.0691,84.9931,0,U,63845,999,6088,.85003E-3,.23227E-3,0
STARLINK-34044,2025-093L,2026-06-03T08:05:01.504608,15.27633383,.00025568,43.0028,313.9658,249.0390,111.0189,0,U,63846,999,6085,.13721464E-2,.37753E-3,0
STARLINK-34037,2025-093M,2026-06-01T18:40:04.524960,15.27596606,.00014426,43.0045,322.9084,247.0971,112.9729,0,U,63847,999,6083,.97771392E-3,.26754E-3,0
STARLINK-34010,2025-093N,2026-06-01T18:49:19.699392,15.27605392,.00014759,43.0001,322.9576,328.1717,31.9046,0,U,63848,999,6061,.84527978E-3,.23089E-3,0
STARLINK-34009,2025-093P,2026-06-01T19:17:46.774176,15.27604922,.00021502,43.0047,319.6470,291.8891,68.1732,0,U,63849,999,6087,.74044747E-3,.20185E-3,0
STARLINK-33958,2025-093Q,2026-06-02T18:58:42.337920,15.27608556,.00040629,43.0001,317.6134,37.7684,322.3453,0,U,63850,999,6082,.91733364E-3,.25093E-3,0
